start=new Date('2022-07-09T00:00:00.000Z').valueOf();
sats=[{"MEAN_MOTION_DDOT":"0.0000000000000","ECCENTRICITY":"0.00034230","INCLINATION":"53.2165","OBJECT_TYPE":"PAYLOAD","TLE_LINE2":"2 49413  53.2165 116.4841 0003423  60.2994 299.8338 15.08854633 36411","REF_FRAME":"TEME","DECAY_DATE":null,"CENTER_NAME":"EARTH","PERIAPSIS":"537.333","CLASSIFICATION_TYPE":"U","RA_OF_ASC_NODE":"116.4841","MEAN_MOTION_DOT":"0.00001843","GP_ID":"207667179","EPOCH":"2022-07-08T06:36:04.798656","PERIOD":"95.437","EPHEMERIS_TYPE":"0","FILE":"3509949","MEAN_ANOMALY":"299.8338","ELEMENT_SET_NO":"999","MEAN_ELEMENT_THEORY":"SGP4","BSTAR":"0.00013387000000","TLE_LINE1":"1 49413U 21104F   22189.27505554  .00001843  00000-0  13387-3 0  9995","OBJECT_ID":"2021-104F","SITE":"AFETR","MEAN_MOTION":"15.08854633","APOAPSIS":"542.069","OBJECT_NAME":"STARLINK-3157","LAUNCH_DATE":"2021-11-13","ARG_OF_PERICENTER":"60.2994","COUNTRY_CODE":"US","TIME_SYSTEM":"UTC","SEMIMAJOR_AXIS":"6917.836","NORAD_CAT_ID":"49413","RCS_SIZE":"LARGE","REV_AT_EPOCH":"3641"},{"FILE":"3509949","ELEMENT_SET_NO":"999","MEAN_ANOMALY":"300.3888","EPOCH":"2022-07-08T13:06:54.246816","CLASSIFICATION_TYPE":"U","RA_OF_ASC_NODE":"125.2602","MEAN_MOTION_DOT":"0.00002284","GP_ID":"207667430","EPHEMERIS_TYPE":"0","PERIOD":"95.437","REF_FRAME":"TEME","CENTER_NAME":"EARTH","PERIAPSIS":"537.450","DECAY_DATE":null,"INCLINATION":"53.2169","MEAN_MOTION_DDOT":"0.0000000000000","ECCENTRICITY":"0.00032820","TLE_LINE2":"2 49414  53.2169 125.2602 0003282  59.7428 300.3888 15.08847999 36311","OBJECT_TYPE":"PAYLOAD","SEMIMAJOR_AXIS":"6917.856","TIME_SYSTEM":"UTC","REV_AT_EPOCH":"3631","NORAD_CAT_ID":"49414","RCS_SIZE":"LARGE","COUNTRY_CODE":"US","LAUNCH_DATE":"2021-11-13","ARG_OF_PERICENTER":"59.7428","APOAPSIS":"541.991","MEAN_MOTION":"15.08847999","OBJECT_NAME":"STARLINK-3146","BSTAR":"0.00016158000000","MEAN_ELEMENT_THEORY":"SGP4","SITE":"AFETR","OBJECT_ID":"2021-104G","TLE_LINE1":"1 49414U 21104G   22189.54646119  .00002284  00000-0  16158-3 0  9998"},{"OBJECT_TYPE":"PAYLOAD","TLE_LINE2":"2 49415  53.2165 114.1223 0003344  55.5909 304.5399 15.08833236 36481","MEAN_MOTION_DDOT":"0.0000000000000","ECCENTRICITY":"0.00033440","INCLINATION":"53.2165","DECAY_DATE":null,"CENTER_NAME":"EARTH","PERIAPSIS":"537.453","REF_FRAME":"TEME","PERIOD":"95.438","EPHEMERIS_TYPE":"0","CLASSIFICATION_TYPE":"U","RA_OF_ASC_NODE":"114.1223","MEAN_MOTION_DOT":"0.00001668","GP_ID":"207696845","EPOCH":"2022-07-08T19:13:53.089824","MEAN_ANOMALY":"304.5399","ELEMENT_SET_NO":"999","FILE":"3510087","OBJECT_ID":"2021-104H","TLE_LINE1":"1 49415U 21104H   22189.80130891  .00001668  00000-0  12293-3 0  9994","SITE":"AFETR","MEAN_ELEMENT_THEORY":"SGP4","BSTAR":"0.00012293000000","OBJECT_NAME":"STARLINK-3159","MEAN_MOTION":"15.08833236","APOAPSIS":"542.079","LAUNCH_DATE":"2021-11-13","ARG_OF_PERICENTER":"55.5909","COUNTRY_CODE":"US","RCS_SIZE":"LARGE","NORAD_CAT_ID":"49415","REV_AT_EPOCH":"3648","TIME_SYSTEM":"UTC","SEMIMAJOR_AXIS":"6917.901"},{"OBJECT_NAME":"STARLINK-3133","APOAPSIS":"542.284","MEAN_MOTION":"15.08843963","SITE":"AFETR","TLE_LINE1":"1 49416U 21104J   22189.34038307  .00001315  00000-0  10076-3 0  9999","OBJECT_ID":"2021-104J","BSTAR":"0.00010076000000","MEAN_ELEMENT_THEORY":"SGP4","REV_AT_EPOCH":"3628","NORAD_CAT_ID":"49416","RCS_SIZE":"LARGE","SEMIMAJOR_AXIS":"6917.868","TIME_SYSTEM":"UTC","COUNTRY_CODE":"US","LAUNCH_DATE":"2021-11-13","ARG_OF_PERICENTER":"59.4360","CENTER_NAME":"EARTH","PERIAPSIS":"537.183","DECAY_DATE":null,"REF_FRAME":"TEME","TLE_LINE2":"2 49416  53.2171 126.1774 0003687  59.4360 300.6996 15.08843963 36283","OBJECT_TYPE":"PAYLOAD","INCLINATION":"53.2171","MEAN_MOTION_DDOT":"0.0000000000000","ECCENTRICITY":"0.00036870","ELEMENT_SET_NO":"999","MEAN_ANOMALY":"300.6996","FILE":"3509949","EPHEMERIS_TYPE":"0","PERIOD":"95.437","EPOCH":"2022-07-08T08:10:09.097248","CLASSIFICATION_TYPE":"U","RA_OF_ASC_NODE":"126.1774","GP_ID":"207668915","MEAN_MOTION_DOT":"0.00001315"},{"OBJECT_TYPE":"PAYLOAD","TLE_LINE2":"2 49417  53.2178 114.1401 0003471  56.9898 303.1427 15.08855928 36487","MEAN_MOTION_DDOT":"0.0000000000000","ECCENTRICITY":"0.00034710","INCLINATION":"53.2178","DECAY_DATE":null,"CENTER_NAME":"EARTH","PERIAPSIS":"537.296","REF_FRAME":"TEME","PERIOD":"95.437","EPHEMERIS_TYPE":"0","CLASSIFICATION_TYPE":"U","RA_OF_ASC_NODE":"114.1401","MEAN_MOTION_DOT":"0.00001809","GP_ID":"207696344","EPOCH":"2022-07-08T19:08:33.174816","MEAN_ANOMALY":"303.1427","ELEMENT_SET_NO":"999","FILE":"3510087","OBJECT_ID":"2021-104K","TLE_LINE1":"1 49417U 21104K   22189.79760619  .00001809  00000-0  13169-3 0  9991","SITE":"AFETR","MEAN_ELEMENT_THEORY":"SGP4","BSTAR":"0.00013169000000","OBJECT_NAME":"STARLINK-3154","MEAN_MOTION":"15.08855928","APOAPSIS":"542.098","LAUNCH_DATE":"2021-11-13","ARG_OF_PERICENTER":"56.9898","COUNTRY_CODE":"US","RCS_SIZE":"LARGE","NORAD_CAT_ID":"49417","REV_AT_EPOCH":"3648","SEMIMAJOR_AXIS":"6917.832","TIME_SYSTEM":"UTC"},{"REV_AT_EPOCH":"3627","RCS_SIZE":"LARGE","NORAD_CAT_ID":"49418","TIME_SYSTEM":"UTC","SEMIMAJOR_AXIS":"6917.866","COUNTRY_CODE":"US","ARG_OF_PERICENTER":"56.5077","LAUNCH_DATE":"2021-11-13","OBJECT_NAME":"STARLINK-3111","APOAPSIS":"542.352","MEAN_MOTION":"15.08844733","SITE":"AFETR","OBJECT_ID":"2021-104L","TLE_LINE1":"1 49418U 21104L   22189.33670323  .00001810  00000-0  13184-3 0  9993","BSTAR":"0.00013184000000","MEAN_ELEMENT_THEORY":"SGP4","MEAN_ANOMALY":"303.6277","ELEMENT_SET_NO":"999","FILE":"3509949","EPHEMERIS_TYPE":"0","PERIOD":"95.437","EPOCH":"2022-07-08T08:04:51.159072","GP_ID":"207667931","MEAN_MOTION_DOT":"0.00001810","CLASSIFICATION_TYPE":"U","RA_OF_ASC_NODE":"126.2065","PERIAPSIS":"537.110","CENTER_NAME":"EARTH","DECAY_DATE":null,"REF_FRAME":"TEME","TLE_LINE2":"2 49418  53.2186 126.2065 0003789  56.5077 303.6277 15.08844733 36271","OBJECT_TYPE":"PAYLOAD","INCLINATION":"53.2186","ECCENTRICITY":"0.00037890","MEAN_MOTION_DDOT":"0.0000000000000"},{"SITE":"AFETR","OBJECT_ID":"2021-104M","TLE_LINE1":"1 49419U 21104M   22189.85557899  .00002318  00000-0  16372-3 0  9999","BSTAR":"0.00016372000000","MEAN_ELEMENT_THEORY":"SGP4","OBJECT_NAME":"STARLINK-3120","APOAPSIS":"541.993","MEAN_MOTION":"15.08846699","COUNTRY_CODE":"US","ARG_OF_PERICENTER":"61.5065","LAUNCH_DATE":"2021-11-13","REV_AT_EPOCH":"3743","RCS_SIZE":"LARGE","NORAD_CAT_ID":"49419","SEMIMAJOR_AXIS":"6917.860","TIME_SYSTEM":"UTC","TLE_LINE2":"2 49419  53.2190 123.8793 0003279  61.5065 298.6257 15.08846699 37438","OBJECT_TYPE":"PAYLOAD","INCLINATION":"53.2190","ECCENTRICITY":"0.00032790","MEAN_MOTION_DDOT":"0.0000000000000","PERIAPSIS":"537.457","CENTER_NAME":"EARTH","DECAY_DATE":null,"REF_FRAME":"TEME","EPHEMERIS_TYPE":"0","PERIOD":"95.437","EPOCH":"2022-07-08T20:32:02.024736","MEAN_MOTION_DOT":"0.00002318","GP_ID":"207697346","CLASSIFICATION_TYPE":"U","RA_OF_ASC_NODE":"123.8793","ELEMENT_SET_NO":"999","MEAN_ANOMALY":"298.6257","FILE":"3510087"},{"OBJECT_NAME":"STARLINK-3110","APOAPSIS":"542.304","MEAN_MOTION":"15.08847708","SITE":"AFETR","OBJECT_ID":"2021-104N","TLE_LINE1":"1 49420U 21104N   22189.86293988  .00003500  00000-0  23785-3 0  9998","BSTAR":"0.00023785000000","MEAN_ELEMENT_THEORY":"SGP4","REV_AT_EPOCH":"3635","RCS_SIZE":"LARGE","NORAD_CAT_ID":"49420","TIME_SYSTEM":"UTC","SEMIMAJOR_AXIS":"6917.857","COUNTRY_CODE":"US","LAUNCH_DATE":"2021-11-13","ARG_OF_PERICENTER":"60.0320","CENTER_NAME":"EARTH","PERIAPSIS":"537.139","DECAY_DATE":null,"REF_FRAME":"TEME","TLE_LINE2":"2 49420  53.2174 123.8296 0003733  60.0320 300.1042 15.08847708 36356","OBJECT_TYPE":"PAYLOAD","INCLINATION":"53.2174","MEAN_MOTION_DDOT":"0.0000000000000","ECCENTRICITY":"0.00037330","ELEMENT_SET_NO":"999","MEAN_ANOMALY":"300.1042","FILE":"3510087","EPHEMERIS_TYPE":"0","PERIOD":"95.437","EPOCH":"2022-07-08T20:42:38.005632","CLASSIFICATION_TYPE":"U","RA_OF_ASC_NODE":"123.8296","MEAN_MOTION_DOT":"0.00003500","GP_ID":"207695594"},{"BSTAR":"0.00008006800000","MEAN_ELEMENT_THEORY":"SGP4","SITE":"AFETR","TLE_LINE1":"1 49421U 21104P   22189.84822674  .00000986  00000-0  80068-4 0  9990","OBJECT_ID":"2021-104P","APOAPSIS":"541.850","MEAN_MOTION":"15.08836650","OBJECT_NAME":"STARLINK-3112","COUNTRY_CODE":"US","ARG_OF_PERICENTER":"58.7644","LAUNCH_DATE":"2021-11-13","SEMIMAJOR_AXIS":"6917.891","TIME_SYSTEM":"UTC","REV_AT_EPOCH":"3635","NORAD_CAT_ID":"49421","RCS_SIZE":"LARGE","INCLINATION":"53.2186","ECCENTRICITY":"0.00030270","MEAN_MOTION_DDOT":"0.0000000000000","TLE_LINE2":"2 49421  53.2186 123.9087 0003027  58.7644 301.3644 15.08836650 36353","OBJECT_TYPE":"PAYLOAD","REF_FRAME":"TEME","PERIAPSIS":"537.662","CENTER_NAME":"EARTH","DECAY_DATE":null,"EPOCH":"2022-07-08T20:21:26.790336","GP_ID":"207695844","MEAN_MOTION_DOT":"0.00000986","CLASSIFICATION_TYPE":"U","RA_OF_ASC_NODE":"123.9087","EPHEMERIS_TYPE":"0","PERIOD":"95.438","FILE":"3510087","ELEMENT_SET_NO":"999","MEAN_ANOMALY":"301.3644"},{"COUNTRY_CODE":"US","ARG_OF_PERICENTER":"63.3636","LAUNCH_DATE":"2021-11-13","REV_AT_EPOCH":"3634","NORAD_CAT_ID":"49422","RCS_SIZE":"LARGE","SEMIMAJOR_AXIS":"6917.850","TIME_SYSTEM":"UTC","SITE":"AFETR","OBJECT_ID":"2021-104Q","TLE_LINE1":"1 49422U 21104Q   22189.79301745  .00002767  00000-0  19188-3 0  9999","BSTAR":"0.00019188000000","MEAN_ELEMENT_THEORY":"SGP4","OBJECT_NAME":"STARLINK-3161","APOAPSIS":"542.267","MEAN_MOTION":"15.08850069","EPHEMERIS_TYPE":"0","PERIOD":"95.437","EPOCH":"2022-07-08T19:01:56.707680","MEAN_MOTION_DOT":"0.00002767","GP_ID":"207697096","CLASSIFICATION_TYPE":"U","RA_OF_ASC_NODE":"124.1569","MEAN_ANOMALY":"296.7734","ELEMENT_SET_NO":"999","FILE":"3510087","TLE_LINE2":"2 49422  53.2191 124.1569 0003690  63.3636 296.7734 15.08850069 36343","OBJECT_TYPE":"PAYLOAD","INCLINATION":"53.2191","ECCENTRICITY":"0.00036900","MEAN_MOTION_DDOT":"0.0000000000000","PERIAPSIS":"537.162","CENTER_NAME":"EARTH","DECAY_DATE":null,"REF_FRAME":"TEME"}];
